0 FENGYUN 1C DEB
1 30749U 99025ATK 13281.46154111 -.00000147  00000-0 -69478-4 0  7356
2 30749 099.1843 268.2333 0057552 220.2638 292.3086 13.98648173338265
0 FENGYUN 1C DEB
1 30749U 99025ATK 13283.16038286 -.00000112  00000-0 -45941-4 0  7361
2 30749 099.1841 269.9350 0057607 215.5300 206.2817 13.98647872338502
0 FENGYUN 1C DEB
1 30749U 99025ATK 13284.16198270 -.00000085  00000-0 -27465-4 0  7373
2 30749 099.1840 270.9382 0057641 212.7427 209.5119 13.98647578338644
0 FENGYUN 1C DEB
1 30749U 99025ATK 13285.53367913 -.00000075  00000-0 -20280-4 0  7385
2 30749 099.1840 272.3121 0057674 208.9202 276.2464 13.98647275338834
0 FENGYUN 1C DEB
1 30749U 99025ATK 13288.16808146  .00000049  00000-0  64943-4 0  7399
2 30749 099.1842 274.9505 0057740 201.5817 220.9241 13.98646768339202
0 FENGYUN 1C DEB
1 30749U 99025ATK 13289.47363792  .00000070  00000-0  78975-4 0  7403
2 30749 099.1844 276.2578 0057777 197.9475 314.6260 13.98646575339384
0 FENGYUN 1C DEB
1 30749U 99025ATK 13290.47640375  .00000127  00000-0  11826-3 0  7415
2 30749 099.1847 277.2619 0057800 195.1426 323.7392 13.98646383339527
0 FENGYUN 1C DEB
1 30749U 99025ATK 13292.17373934  .00000223  00000-0  18427-3 0  7420
2 30749 099.1850 278.9617 0057837 190.4245 230.1117 13.98646208339762
0 FENGYUN 1C DEB
1 30749U 99025ATK 13293.47459117  .00000300  00000-0  23694-3 0  7431
2 30749 099.1852 280.2645 0057875 186.8006 300.1281 13.98646405339946
0 FENGYUN 1C DEB
1 30749U 99025ATK 13294.96634464  .00000385  00000-0  29531-3 0  7446
2 30749 099.1855 281.7586 0057901 182.6802 251.3345 13.98646765340159
